ONEWEB-0456             
1 51646U 22012AA  24147.60374108 -.00001221  00000+0 -35340-2 0  9990
2 51646  87.8950 185.6600 0002222  94.2301 265.9080 13.10376365110911
ONEWEB-0457             
1 51647U 22012AB  24147.80957492 -.00005587  00000+0 -16045-1 0  9995
2 51647  87.8951 185.6386 0001430 101.9720 258.1568 13.10397015110948
ONEWEB-0458             
1 51648U 22012AC  24147.83109335 -.00003289  00000+0 -94541-2 0  9999
2 51648  87.8948 185.6563 0005802 251.8731 108.1765 13.10418970110909
ONEWEB-0461             
1 51649U 22012AD  24147.76453594  .00000073  00000+0  15590-3 0  9995
2 51649  87.9161 155.4285 0001956  87.6000 272.5356 13.17650754114938
ONEWEB-0463             
1 51650U 22012AE  24147.97495893 -.00000012  00000+0 -63056-4 0  9994
2 51650  87.9165 155.4327 0001929  89.8814 270.2539 13.17650261114748
ONEWEB-0464             
1 51651U 22012AF  24147.59875914 -.00001533  00000+0 -44270-2 0  9993
2 51651  87.8956 185.6845 0002150  92.4836 267.6537 13.10377452110898
ONEWEB-0468             
1 51652U 22012AG  24147.83450255  .00007059  00000+0  20194-1 0  9993
2 51652  87.8956 185.6339 0001424 129.9834 230.1419 13.10296769110901
ONEWEB-0473             
1 51653U 22012AH  24147.66681844 -.00000670  00000+0 -19549-2 0  9992
2 51653  87.8955 185.6671 0001999 100.6413 259.4940 13.10370923110881
ONEWEB-0474             
1 51654U 22012AJ  24147.65851969 -.00002466  00000+0 -71021-2 0  9997
2 51654  87.8941 185.6677 0002260 143.6159 216.5122 13.10380073110871
ONEWEB-0475             
1 51655U 22012AK  24147.75820806  .00000111  00000+0  25223-3 0  9992
2 51655  87.9171 155.4565 0001995  98.2567 261.8791 13.17653287114732
ONEWEB-0490             
1 54113U 22138A   24147.86598645  .00007456  00000+0  18585-1 0  9998
2 54113  87.9137  94.4857 0001853 106.0016 254.1321 13.19692182 77733
ONEWEB-0492             
1 54114U 22138B   24147.89125063  .00000094  00000+0  20254-3 0  9991
2 54114  87.9144  94.4827 0002410  86.6769 273.4639 13.19728199 77742
ONEWEB-0495             
1 54115U 22138C   24147.86913687 -.00001205  00000+0 -30424-2 0  9992
2 54115  87.9145  94.4983 0002959  71.0750 289.0704 13.19730711 77720
ONEWEB-0497             
1 54116U 22138D   24147.88176955  .00000088  00000+0  18698-3 0  9990
2 54116  87.9140  94.4849 0002224  85.4417 274.6970 13.19728017 77711
ONEWEB-0499             
1 54117U 22138E   24147.86439833 -.00000030  00000+0 -10723-3 0  9996
2 54117  87.9138  94.4887 0001551  99.5122 260.6187 13.19728679 77722
ONEWEB-0500             
1 54118U 22138F   24147.86755427  .00000006  00000+0 -17686-4 0  9995
2 54118  87.9139  94.4850 0001896  79.2779 280.8567 13.19724066 77732
ONEWEB-0501             
1 54119U 22138G   24147.89757507  .00006355  00000+0  15836-1 0  9994
2 54119  87.9139  94.4778 0002269  98.9138 261.2252 13.19697785 77713
ONEWEB-0502             
1 54120U 22138H   24147.88334794 -.00000233  00000+0 -61466-3 0  9997
2 54120  87.9137  94.4699 0002150  93.0020 267.1359 13.19725307 77737
ONEWEB-0503             
1 54121U 22138J   24147.87229119  .00000326  00000+0  78102-3 0  9997
2 54121  87.9134  94.4785 0001630  92.5973 267.5346 13.19727456 77720
ONEWEB-0504             
1 54122U 22138K   24147.93547403  .00000075  00000+0  15480-3 0  9995
2 54122  87.9141  94.4720 0001914  92.9154 267.2197 13.19723634 77745
ONEWEB-0505             
1 54123U 22138L   24147.93231547 -.00000089  00000+0 -25552-3 0  9993
2 54123  87.9138  94.4678 0002425 102.7275 257.4129 13.19724755 77725
ONEWEB-0506             
1 54124U 22138M   24147.83122034 -.00000047  00000+0 -15065-3 0  9995
2 54124  87.9137  94.4848 0002163  89.9152 270.2228 13.19727479 77700
ONEWEB-0507             
1 54125U 22138N   24147.92757539  .00000440  00000+0  10657-2 0  9996
2 54125  87.9144  94.4857 0002326  92.4195 267.7204 13.19725081 77764
ONEWEB-0508             
1 54126U 22138P   24147.92442053 -.00001741  00000+0 -43818-2 0  9991
2 54126  87.9144  94.4797 0002333  91.1060 269.0340 13.19736385 77746
ONEWEB-0509             
1 54127U 22138Q   24147.89914120 -.00000245  00000+0 -64433-3 0  9992
2 54127  87.9137  94.4732 0002152  88.1612 271.9767 13.19725376 78582
ONEWEB-0510             
1 54128U 22138R   24147.77563163  .00001006  00000+0  24421-2 0  9993
2 54128  87.9222  63.9365 0002239  75.4042 284.7340 13.20765131 80096
ONEWEB-0511             
1 54129U 22138S   24147.89598245  .00000103  00000+0  22481-3 0  9998
2 54129  87.9138  94.4765 0001713  90.1374 269.9955 13.19728395 77748
ONEWEB-0512             
1 54130U 22138T   24147.88808660  .00000652  00000+0  15961-2 0  9997
2 54130  87.9144  94.4930 0002060  96.1393 263.9974 13.19723474 77719
ONEWEB-0513             
1 54131U 22138U   24147.93468180 -.00009313  00000+0 -23303-1 0  9996
2 54131  87.9144  94.4780 0001645 106.6408 253.4906 13.19774499 77605
ONEWEB-0514             
1 54132U 22138V   24147.90388196  .00000011  00000+0 -53846-5 0  9996
2 54132  87.9139  94.4808 0002033  83.2490 276.8874 13.19728050 77733
ONEWEB-0515             
1 54133U 22138W   24147.83879277 -.00001660  00000+0 -41174-2 0  9994
2 54133  87.9235  63.9062 0002579  69.2694 290.8715 13.20757842 80129
ONEWEB-0516             
1 54134U 22138X   24147.87861167 -.00000222  00000+0 -58757-3 0  9997
2 54134  87.9147  94.4951 0002237  84.9116 275.2272 13.19725443 77730
ONEWEB-0517             
1 54135U 22138Y   24147.93388928  .00000322  00000+0  77209-3 0  9996
2 54135  87.9138  94.4707 0001641  87.2941 272.8380 13.19727744 77740
ONEWEB-0518             
1 54136U 22138Z   24147.87703357 -.00000940  00000+0 -23808-2 0  9990
2 54136  87.9145  94.4941 0002556  94.7488 265.3936 13.19732791 77735
ONEWEB-0519             
1 54137U 22138AA  24147.90231006  .00000102  00000+0  22222-3 0  9990
2 54137  87.9140  94.4726 0001757  85.8369 274.2965 13.19724480 77741
ONEWEB-0520             
1 54138U 22138AB  24147.93704486 -.00000340  00000+0 -88210-3 0  9996
2 54138  87.9140  94.4688 0002093  89.6708 270.4664 13.19726380 77736
ONEWEB-0521             
1 54139U 22138AC  24147.81858660 -.00001022  00000+0 -25843-2 0  9998
2 54139  87.9138  94.4857 0001924  78.3481 281.7867 13.19733504 77665
ONEWEB-0522             
1 54140U 22138AD  24147.87387097  .00000033  00000+0  49813-4 0  9991
2 54140  87.9137  94.4764 0002221  84.1541 275.9845 13.19727381 77719
ONEWEB-0523             
1 54141U 22138AE  24147.82614337 -.00001000  00000+0 -24924-2 0  9998
2 54141  87.9220  63.9349 0002956  43.0878 317.0486 13.20776466 80123
ONEWEB-0524             
1 54142U 22138AF  24147.81509048 -.00000035  00000+0 -11790-3 0  9995
2 54142  87.9221  63.9400 0002961  66.2301 293.9143 13.20768122 80129
ONEWEB-0525             
1 54143U 22138AG  24147.89282388  .00000011  00000+0 -48404-5 0  9996
2 54143  87.9140  94.4807 0002309  93.1175 267.0222 13.19729192 77739
ONEWEB-0526             
1 54144U 22138AH  24147.92598849  .00000352  00000+0  84691-3 0  9996
2 54144  87.9123  94.4703 0002313  83.6266 276.5130 13.19736333 77712
ONEWEB-0529             
1 54145U 22138AJ  24147.92915413  .00000078  00000+0  16233-3 0  9999
2 54145  87.9146  94.4829 0002307  90.8767 269.2630 13.19728434 77735
ONEWEB-0531             
1 54146U 22138AK  24147.80089429  .00000085  00000+0  17592-3 0  9993
2 54146  87.9222  63.9335 0002511  53.6534 306.4831 13.20769915 80125
ONEWEB-0535             
1 54147U 22138AL  24147.88650758  .00000981  00000+0  24170-2 0  9995
2 54147  87.9140  94.4775 0002029  79.7735 280.3627 13.19723812 77749
ONEWEB-0536             
1 54148U 22138AM  24147.78824713 -.00000150  00000+0 -39980-3 0  9995
2 54148  87.9219  63.9857 0002052  42.6549 317.4743 13.20770761 80110
ONEWEB-0527             
1 54642U 22166A   24147.96021695 -.00002458  00000+0 -59838-2 0  9999
2 54642  87.9302  33.5356 0001477  67.8330 292.2961 13.21826239 72291
ONEWEB-0528             
1 54643U 22166B   24147.73942803  .00000954  00000+0  22789-2 0  9990
2 54643  87.9304  33.5651 0002086  74.4773 285.6591 13.21819933 72270
ONEWEB-0539             
1 54644U 22166C   24147.92709771  .00000340  00000+0  79191-3 0  9996
2 54644  87.9314  33.5285 0001584  78.5269 281.6043 13.21823671 72296
ONEWEB-0540             
1 54645U 22166D   24147.92157268  .00000056  00000+0  10365-3 0  9997
2 54645  87.9308  33.5490 0001700  88.9532 271.1796 13.21823560 72281
ONEWEB-0542             
1 54646U 22166E   24147.70946909  .00000099  00000+0  20774-3 0  9994
2 54646  87.9315  33.5712 0001392  81.0541 279.0751 13.21824155 72265
ONEWEB-0545             
1 54647U 22166F   24147.97913358  .00000003  00000+0 -24433-4 0  9999
2 54647  87.9305  33.5408 0001375  92.4764 267.6527 13.21824023 72269
ONEWEB-0580             
1 54648U 22166G   24147.95232616  .00000155  00000+0  34301-3 0  9990
2 54648  87.9320  33.5138 0001362  79.8109 280.3179 13.21823865 72308
ONEWEB-0582             
1 54649U 22166H   24147.91919929 -.00000288  00000+0 -72832-3 0  9996
2 54649  87.9308  33.5579 0001538  88.4714 271.6596 13.21825322 72279
ONEWEB-0583             
1 54650U 22166J   24147.70317072 -.00000662  00000+0 -16354-2 0  9998
2 54650  87.9314  33.6016 0002219  78.9785 281.1598 13.21818741 72257
ONEWEB-0584             
1 54651U 22166K   24147.72365712  .00000097  00000+0  20378-3 0  9997
2 54651  87.9312  33.5618 0001510  82.2129 277.9176 13.21823490 72247
ONEWEB-0585             
1 54652U 22166L   24147.97598190  .00000053  00000+0  96838-4 0  9990
2 54652  87.9324  33.5210 0001872  89.2352 270.8996 13.21823408 72280
ONEWEB-0586             
1 54653U 22166M   24147.91290127 -.00002323  00000+0 -56557-2 0  9990
2 54653  87.9308  33.5487 0001431  81.7028 278.4268 13.21840882 72277
ONEWEB-0587             
1 54654U 22166N   24147.92236899  .00000076  00000+0  15373-3 0  9991
2 54654  87.9306  33.5025 0001560  67.0563 293.0735 13.21825638 72430
